STARLINK-30998          
1 58513U 23191F   26068.45569161  .00008137  00000+0  31234-3 0  9991
2 58513  43.0003 104.9154 0001083 269.4650  90.6078 15.26777394125461
STARLINK-36554          
1 67502U 26012K   26067.71268370  .00032833  00000+0  11969-2 0  9992
2 67502  42.9934 319.8184 0000695 339.2059  20.8765 15.27591469  7619
